[
    {
        "Altitude(m)": 604983.0529227643,
        "Argument of Periapsis(deg)": 0.0,
        "Eccentricity": 0.0,
        "Inclination(deg)": 60.0,
        "Latitude(deg)": -0.09260914591012488,
        "Longitude(deg)": 170.08391621878096,
        "Mean Anomaly(deg)": 180.0,
        "RAAN(deg)": 90.0,
        "Satellite Name": "Test1 407",
        "Satellite Number": 407,
        "Semi-Major Axis(m)": 6980739.136638005,
        "Time(s)": 0
    },
    {
        "Altitude(m)": 605055.3321164333,
        "Argument of Periapsis(deg)": 0.00010418945913296404,
        "Eccentricity": 0.0,
        "Inclination(deg)": 60.0,
        "Latitude(deg)": -0.6330195544019102,
        "Longitude(deg)": 170.35204006522508,
        "Mean Anomaly(deg)": 180.62010614546185,
        "RAAN(deg)": 89.99957995086027,
        "Satellite Name": "Test1 407",
        "Satellite Number": 407,
        "Semi-Major Axis(m)": 6980739.136638005,
        "Time(s)": 10
    }
]